{"type": "FeatureCollection", "features": [ {"type": "Feature", "properties": {"norad_id": 41774, "name": "SKYSAT-C3", "group": "resource", "lat": 54.99136421318829, "lon": 0.9554935871406333, "alt_km": 428.8550474920967, "timestamp": "2025-12-02T17:49:11.683087+00:00", "meta": {"OBJECT_NAME": "SKYSAT-C3", "OBJECT_ID": "2016-058E", "EPOCH": "2025-12-02T02:01:26.634720", "MEAN_MOTION": 15.43828804, "ECCENTRICITY": 0.00013941, "INCLINATION": 96.9318, "RA_OF_ASC_NODE": 10.3311, "ARG_OF_PERICENTER": 98.2621, "MEAN_ANOMALY": 261.8787, "EPHEMERIS_TYPE": 0, "CLASSIFICATION_TYPE": "U", "NORAD_CAT_ID": 41774, "ELEMENT_SET_NO": 999, "REV_AT_EPOCH": 51561, "BSTAR": 0.000469643, "MEAN_MOTION_DOT": 0.0002123, "MEAN_MOTION_DDOT": 0}, "tle": {"line1": "1 41774U 16058E   25336.08433605  .00021230  00000+0  46964-3 0  9990", "line2": "2 41774  96.9318  10.3311 0001394  98.2621 261.8787 15.43828804515615"}}, "geometry": {"type": "Point", "coordinates": [0.9554935871406333, 54.99136421318829]}}, {"type": "Feature", "properties": {"norad_id": 41785, "name": "ALSAT 1B", "group": "resource", "lat": -16.75990809835823, "lon": -8.676034593770302, "alt_km": 665.6398605264494, "timestamp": "2025-12-02T17:49:11.683101+00:00", "meta": {"OBJECT_NAME": "ALSAT 1B", "OBJECT_ID": "2016-059C", "EPOCH": "2025-12-02T11:22:16.585248", "MEAN_MOTION": 14.72057979, "ECCENTRICITY": 0.0010335, "INCLINATION": 97.782, "RA_OF_ASC_NODE": 348.7065, "ARG_OF_PERICENTER": 132.9674, "MEAN_ANOMALY": 227.2402, "EPHEMERIS_TYPE": 0, "CLASSIFICATION_TYPE": "U", "NORAD_CAT_ID": 41785, "ELEMENT_SET_NO": 999, "REV_AT_EPOCH": 49163, "BSTAR": 0.00011301, "MEAN_MOTION_DOT": 6.64e-06, "MEAN_MOTION_DDOT": 0}, "tle": {"line1": "1 41785U 16059C   25336.47380307  .00000664  00000+0  11301-3 0  9991", "line2": "2 41785  97.7820 348.7065 0010335 132.9674 227.2402 14.72057979491630"}}, "geometry": {"type": "Point", "coordinates": [-8.676034593770302, -16.75990809835823]}}, {"type": "Feature", "properties": {"norad_id": 41787, "name": "PATHFINDER 1", "group": "resource", "lat": -52.55384643851301, "lon": 149.65050797313904, "alt_km": 687.7366155717255, "timestamp": "2025-12-02T17:49:11.683112+00:00", "meta": {"OBJECT_NAME": "PATHFINDER 1", "OBJECT_ID": "2016-059E", "EPOCH": "2025-12-02T11:51:11.378880", "MEAN_MOTION": 14.67292138, "ECCENTRICITY": 0.0029938, "INCLINATION": 97.814, "RA_OF_ASC_NODE": 339.7431, "ARG_OF_PERICENTER": 112.3196, "MEAN_ANOMALY": 248.1187, "EPHEMERIS_TYPE": 0, "CLASSIFICATION_TYPE": "U", "NORAD_CAT_ID": 41787, "ELEMENT_SET_NO": 999, "REV_AT_EPOCH": 49086, "BSTAR": 0.0002009, "MEAN_MOTION_DOT": 1.094e-05, "MEAN_MOTION_DDOT": 0}, "tle": {"line1": "1 41787U 16059E   25336.49388170  .00001094  00000+0  20090-3 0  9994", "line2": "2 41787  97.8140 339.7431 0029938 112.3196 248.1187 14.67292138490863"}}, "geometry": {"type": "Point", "coordinates": [149.65050797313904, -52.55384643851301]}}, {"type": "Feature", "properties": {"norad_id": 41790, "name": "SCATSAT 1", "group": "resource", "lat": 11.449192528054311, "lon": -145.04914701649162, "alt_km": 595.6198466019223, "timestamp": "2025-12-02T17:49:11.683123+00:00", "meta": {"OBJECT_NAME": "SCATSAT 1", "OBJECT_ID": "2016-059H", "EPOCH": "2025-12-02T04:04:18.892704", "MEAN_MOTION": 14.78875526, "ECCENTRICITY": 0.00557394, "INCLINATION": 98.1482, "RA_OF_ASC_NODE": 32.708, "ARG_OF_PERICENTER": 161.5626, "MEAN_ANOMALY": 198.7622, "EPHEMERIS_TYPE": 0, "CLASSIFICATION_TYPE": "U", "NORAD_CAT_ID": 41790, "ELEMENT_SET_NO": 999, "REV_AT_EPOCH": 7246, "BSTAR": 0.00029277794, "MEAN_MOTION_DOT": 2.157e-05, "MEAN_MOTION_DDOT": 0}, "tle": {"line1": "1 41790U 16059H   25336.16966311  .00002157  00000+0  29278-3 0  9999", "line2": "2 41790  98.1482  32.7080 0055739 161.5626 198.7622 14.78875526 72468"}}, "geometry": {"type": "Point", "coordinates": [-145.04914701649162, 11.449192528054311]}}, {"type": "Feature", "properties": {"norad_id": 41875, "name": "GOKTURK 1A", "group": "resource", "lat": 65.68590288708485, "lon": 67.71691289040004, "alt_km": 677.1175489165125, "timestamp": "2025-12-02T17:49:11.683132+00:00", "meta": {"OBJECT_NAME": "GOKTURK 1A", "OBJECT_ID": "2016-073A", "EPOCH": "2025-12-02T12:22:49.301760", "MEAN_MOTION": 14.62759687, "ECCENTRICITY": 0.0001242, "INCLINATION": 98.1431, "RA_OF_ASC_NODE": 229.0173, "ARG_OF_PERICENTER": 81.8915, "MEAN_ANOMALY": 278.2427, "EPHEMERIS_TYPE": 0, "CLASSIFICATION_TYPE": "U", "NORAD_CAT_ID": 41875, "ELEMENT_SET_NO": 999, "REV_AT_EPOCH": 48007, "BSTAR": 0.00015986, "MEAN_MOTION_DOT": 7.68e-06, "MEAN_MOTION_DDOT": 0}, "tle": {"line1": "1 41875U 16073A   25336.51584840  .00000768  00000+0  15986-3 0  9998", "line2": "2 41875  98.1431 229.0173 0001242  81.8915 278.2427 14.62759687480074"}}, "geometry": {"type": "Point", "coordinates": [67.71691289040004, 65.68590288708485]}}, {"type": "Feature", "properties": {"norad_id": 41877, "name": "RESOURCESAT-2A", "group": "resource", "lat": -20.901989317264647, "lon": -136.72629509373422, "alt_km": 825.3805866903376, "timestamp": "2025-12-02T17:49:11.683142+00:00", "meta": {"OBJECT_NAME": "RESOURCESAT-2A", "OBJECT_ID": "2016-074A", "EPOCH": "2025-12-02T11:48:33.818112", "MEAN_MOTION": 14.21592371, "ECCENTRICITY": 0.0001175, "INCLINATION": 98.7768, "RA_OF_ASC_NODE": 46.4072, "ARG_OF_PERICENTER": 306.3736, "MEAN_ANOMALY": 53.7332, "EPHEMERIS_TYPE": 0, "CLASSIFICATION_TYPE": "U", "NORAD_CAT_ID": 41877, "ELEMENT_SET_NO": 999, "REV_AT_EPOCH": 46635, "BSTAR": 0.00012813, "MEAN_MOTION_DOT": 2.36e-06, "MEAN_MOTION_DDOT": 0}, "tle": {"line1": "1 41877U 16074A   25336.49205808  .00000236  00000+0  12813-3 0  9998", "line2": "2 41877  98.7768  46.4072 0001175 306.3736  53.7332 14.21592371466351"}}, "geometry": {"type": "Point", "coordinates": [-136.72629509373422, -20.901989317264647]}}, {"type": "Feature", "properties": {"norad_id": 41948, "name": "CARTOSAT-2D", "group": "resource", "lat": -59.205241015306804, "lon": 47.05797290241017, "alt_km": 515.5872249773174, "timestamp": "2025-12-02T17:49:11.683152+00:00", "meta": {"OBJECT_NAME": "CARTOSAT-2D", "OBJECT_ID": "2017-008A", "EPOCH": "2025-12-02T11:45:40.630176", "MEAN_MOTION": 15.19329744, "ECCENTRICITY": 0.0004804, "INCLINATION": 97.4405, "RA_OF_ASC_NODE": 34.1428, "ARG_OF_PERICENTER": 201.1395, "MEAN_ANOMALY": 158.9642, "EPHEMERIS_TYPE": 0, "CLASSIFICATION_TYPE": "U", "NORAD_CAT_ID": 41948, "ELEMENT_SET_NO": 999, "REV_AT_EPOCH": 48771, "BSTAR": 2.3379e-06, "MEAN_MOTION_DOT": -1.8e-07, "MEAN_MOTION_DDOT": 0}, "tle": {"line1": "1 41948U 17008A   25336.49005359 -.00000018  00000+0  23379-5 0  9994", "line2": "2 41948  97.4405  34.1428 0004804 201.1395 158.9642 15.19329744487713"}}, "geometry": {"type": "Point", "coordinates": [47.05797290241017, -59.205241015306804]}}, {"type": "Feature", "properties": {"norad_id": 42063, "name": "SENTINEL-2B", "group": "resource", "lat": -18.44935384506844, "lon": -133.5562578048953, "alt_km": 794.1681703566946, "timestamp": "2025-12-02T17:49:11.683163+00:00", "meta": {"OBJECT_NAME": "SENTINEL-2B", "OBJECT_ID": "2017-013A", "EPOCH": "2025-12-02T11:51:35.788608", "MEAN_MOTION": 14.3080935, "ECCENTRICITY": 0.0001124, "INCLINATION": 98.5728, "RA_OF_ASC_NODE": 49.0835, "ARG_OF_PERICENTER": 98.729, "MEAN_ANOMALY": 261.402, "EPHEMERIS_TYPE": 0, "CLASSIFICATION_TYPE": "U", "NORAD_CAT_ID": 42063, "ELEMENT_SET_NO": 999, "REV_AT_EPOCH": 45651, "BSTAR": 0.00010265, "MEAN_MOTION_DOT": 2.25e-06, "MEAN_MOTION_DDOT": 0}, "tle": {"line1": "1 42063U 17013A   25336.49416422  .00000225  00000+0  10265-3 0  9993", "line2": "2 42063  98.5728  49.0835 0001124  98.7290 261.4020 14.30809350456517"}}, "geometry": {"type": "Point", "coordinates": [-133.5562578048953, -18.44935384506844]}}, {"type": "Feature", "properties": {"norad_id": 42767, "name": "CARTOSAT-2E", "group": "resource", "lat": -30.569651202078475, "lon": -149.97838305611353, "alt_km": 513.0837887826001, "timestamp": "2025-12-02T17:49:11.683173+00:00", "meta": {"OBJECT_NAME": "CARTOSAT-2E", "OBJECT_ID": "2017-036C", "EPOCH": "2025-12-02T10:34:20.246304", "MEAN_MOTION": 15.19333891, "ECCENTRICITY": 0.00027, "INCLINATION": 97.4578, "RA_OF_ASC_NODE": 34.1612, "ARG_OF_PERICENTER": 275.5505, "MEAN_ANOMALY": 84.5421, "EPHEMERIS_TYPE": 0, "CLASSIFICATION_TYPE": "U", "NORAD_CAT_ID": 42767, "ELEMENT_SET_NO": 999, "REV_AT_EPOCH": 46827, "BSTAR": 0.00035143, "MEAN_MOTION_DOT": 7.359e-05, "MEAN_MOTION_DDOT": 0}, "tle": {"line1": "1 42767U 17036C   25336.44051211  .00007359  00000+0  35143-3 0  9992", "line2": "2 42767  97.4578  34.1612 0002700 275.5505  84.5421 15.19333891468277"}}, "geometry": {"type": "Point", "coordinates": [-149.97838305611353, -30.569651202078475]}}, {"type": "Feature", "properties": {"norad_id": 42920, "name": "FORMOSAT-5", "group": "resource", "lat": -15.194612234495482, "lon": -130.99798482393027, "alt_km": 732.1981285917682, "timestamp": "2025-12-02T17:49:11.683185+00:00", "meta": {"OBJECT_NAME": "FORMOSAT-5", "OBJECT_ID": "2017-049A", "EPOCH": "2025-12-02T11:57:25.915104", "MEAN_MOTION": 14.50995128, "ECCENTRICITY": 0.0010362, "INCLINATION": 98.2464, "RA_OF_ASC_NODE": 51.0199, "ARG_OF_PERICENTER": 329.672, "MEAN_ANOMALY": 30.3875, "EPHEMERIS_TYPE": 0, "CLASSIFICATION_TYPE": "U", "NORAD_CAT_ID": 42920, "ELEMENT_SET_NO": 999, "REV_AT_EPOCH": 43815, "BSTAR": 9.804e-05, "MEAN_MOTION_DOT": 3.44e-06, "MEAN_MOTION_DDOT": 0}, "tle": {"line1": "1 42920U 17049A   25336.49821661  .00000344  00000+0  98040-4 0  9999", "line2": "2 42920  98.2464  51.0199 0010362 329.6720  30.3875 14.50995128438159"}}, "geometry": {"type": "Point", "coordinates": [-130.99798482393027, -15.194612234495482]}}]}